S-NET A                 
1 43188U 18014J   26131.18002576  .00002596  00000+0  13728-3 0  9995
2 43188  97.5404  36.3942 0010040 134.5870 225.6183 15.16325838453152
S-NET C                 
1 43189U 18014K   26131.19537149  .00002851  00000+0  15054-3 0  9994
2 43189  97.5421  36.4784 0011550 129.0934 231.1328 15.16281125451706
GOES 17                 
1 43226U 18022A   26131.21189045 -.00000172  00000+0  00000+0 0  9992
2 43226   0.8428  86.2200 0000686 325.3437 164.2393  1.00272307 30054
LKW-4                   
1 43236U 18025A   26131.02138255  .00026920  00000+0  34117-3 0  9990
2 43236  97.6333 299.0769 0003249  91.6967 268.4660 15.59443629454237
ZHUHAI-1 OVS-02         
1 43440U 18040B   26131.21807647  .00004641  00000+0  19127-3 0  9993
2 43440  97.0419 150.6504 0004953  53.9437 306.2259 15.24527688447088
ZHUHAI-1 OHS-02         
1 43441U 18040C   26131.22333573  .00004966  00000+0  19944-3 0  9994
2 43441  97.0406 157.5581 0009488  15.7624 344.3908 15.25338068108641
GAOFEN-6                
1 43484U 18048A   26131.20734132  .00000507  00000+0  79611-4 0  9998
2 43484  97.7773 195.2420 0010718 298.7420  61.2713 14.76587687427931
PAKTES 1A               
1 43529U 18056A   26131.22403545  .00001364  00000+0  11783-3 0  9997
2 43529  98.1220 286.1502 0021438 232.0590 127.8695 14.98895636426380
HAIYANG-1C              
1 43609U 18068A   26131.19890334 -.00000143  00000+0 -35587-4 0  9996
2 43609  98.5194 204.0387 0010436 198.3162 161.7649 14.34166772401783
SSTL S1-4               
1 43618U 18071A   26131.17136025  .00000414  00000+0  41519-4 0  9999
2 43618  97.5073   4.3156 0001239  55.6780 304.4559 14.96198244417404
CFOSAT                  
1 43662U 18083A   26131.20702285  .00002097  00000+0  11109-3 0  9992
2 43662  97.3616 136.8257 0001982  63.8255 296.3182 15.16470451416833
TEN-KOH                 
1 43677U 18084G   26131.10435024  .00000760  00000+0  61802-4 0  9993
2 43677  98.0772 321.9114 0008001 238.0924 121.9521 15.02773723410597
DIWATA-2B               
1 43678U 18084H   26131.15579828  .00001902  00000+0  15692-3 0  9994
2 43678  98.1100 325.7784 0012111 299.1757  60.8253 15.00266531410661
STARS-AO                
1 43679U 18084J   26131.13128109  .00004066  00000+0  21177-3 0  9994
2 43679  98.0548 342.8236 0000907 327.4032  32.7143 15.16636781411853
METOP-C                 
1 43689U 18087A   26131.18491001  .00000059  00000+0  46849-4 0  9999
2 43689  98.6664 191.4603 0000238  94.3687 265.7518 14.21501740389576
ES'HAIL 2               
1 43700U 18090A   26131.11564321  .00000155  00000+0  00000+0 0  9997
2 43700   0.0033  75.2010 0001627   8.7258 212.4418  1.00273235 27300
MOHAMMED VI-B           
1 43717U 18095A   26131.18990435  .00000278  00000+0  46595-4 0  9996
2 43717  97.9559 204.0218 0001341  77.0564 283.0795 14.77068689402728
HYSIS                   
1 43719U 18096A   26131.19582104  .00000249  00000+0  41071-4 0  9992
2 43719  97.9850 198.2299 0000760  93.8596 266.2702 14.78615054401952
COSMOS 2530 (RODNIK-S *)
1 43751U 18097A   26131.18691400  .00000184  00000+0  12523-2 0  9994
2 43751  82.5140 245.2410 0020735 116.4302 243.8909 12.42881072337692
COSMOS 2531 (RODNIK-S *)
1 43752U 18097B   26131.21010676  .00000216  00000+0  14897-2 0  9991
2 43752  82.5185 246.2727 0017785 134.1615 226.0930 12.42912855337713
COSMOS 2532 (RODNIK-S *)
1 43753U 18097C   26131.23828709  .00000105  00000+0  68427-3 0  9994
2 43753  82.5130 245.0578 0019138 136.2778 223.9822 12.42909093337684
MINXSS-2                
1 43758U 18099A   26131.18881920  .00022285  00000+0  48164-3 0  9998
2 43758  97.4545 206.4613 0007687  49.9798 310.2123 15.44489493408419
SIRION PATHFINDER-2     
1 43759U 18099B   26131.11303013  .00002717  00000+0  15222-3 0  9991
2 43759  97.4283 181.0560 0010360  73.2077 287.0291 15.14204526407011
AISTECHSAT 2            
1 43768U 18099L   26131.10771392  .00003052  00000+0  16660-3 0  9999
2 43768  97.4325 179.9584 0006299  76.3249 283.8684 15.15064945406661
FOX-1CLIFF (AO-95)      
1 43770U 18099N   26131.10130148  .00007590  00000+0  29846-3 0  9991
2 43770  97.4408 191.5040 0010413 116.7346 243.4959 15.25898855407566
