OBJECT_NAME,OBJECT_ID,EPOCH,MEAN_MOTION,ECCENTRICITY,INCLINATION,RA_OF_ASC_NODE,ARG_OF_PERICENTER,MEAN_ANOMALY,EPHEMERIS_TYPE,CLASSIFICATION_TYPE,NORAD_CAT_ID,ELEMENT_SET_NO,REV_AT_EPOCH,BSTAR,MEAN_MOTION_DOT,MEAN_MOTION_DDOT
S-NET A,2018-014J,2026-05-11T04:19:14.225664,15.16325838,.001004,97.5404,36.3942,134.5870,225.6183,0,U,43188,999,45315,.13728E-3,.2596E-4,0
S-NET C,2018-014K,2026-05-11T04:41:20.096736,15.16281125,.001155,97.5421,36.4784,129.0934,231.1328,0,U,43189,999,45170,.15054E-3,.2851E-4,0
GOES 17,2018-022A,2026-05-11T05:05:07.334880,1.00272307,.0000686,0.8428,86.2200,325.3437,164.2393,0,U,43226,999,3005,0,-.172E-5,0
LKW-4,2018-025A,2026-05-11T00:30:47.452320,15.59443629,.0003249,97.6333,299.0769,91.6967,268.4660,0,U,43236,999,45423,.34117E-3,.2692E-3,0
ZHUHAI-1 OVS-02,2018-040B,2026-05-11T05:14:01.807008,15.24527688,.0004953,97.0419,150.6504,53.9437,306.2259,0,U,43440,999,44708,.19127E-3,.4641E-4,0
ZHUHAI-1 OHS-02,2018-040C,2026-05-11T05:21:36.207072,15.25338068,.0009488,97.0406,157.5581,15.7624,344.3908,0,U,43441,999,10864,.19944E-3,.4966E-4,0
GAOFEN-6,2018-048A,2026-05-11T04:58:34.290048,14.76587687,.0010718,97.7773,195.2420,298.7420,61.2713,0,U,43484,999,42793,.79611E-4,.507E-5,0
PAKTES 1A,2018-056A,2026-05-11T05:22:36.662880,14.98895636,.0021438,98.1220,286.1502,232.0590,127.8695,0,U,43529,999,42638,.11783E-3,.1364E-4,0
HAIYANG-1C,2018-068A,2026-05-11T04:46:25.248576,14.34166772,.0010436,98.5194,204.0387,198.3162,161.7649,0,U,43609,999,40178,-.35587E-4,-.143E-5,0
SSTL S1-4,2018-071A,2026-05-11T04:06:45.525600,14.96198244,.0001239,97.5073,4.3156,55.6780,304.4559,0,U,43618,999,41740,.41519E-4,.414E-5,0
CFOSAT,2018-083A,2026-05-11T04:58:06.774240,15.16470451,.0001982,97.3616,136.8257,63.8255,296.3182,0,U,43662,999,41683,.11109E-3,.2097E-4,0
TEN-KOH,2018-084G,2026-05-11T02:30:15.860736,15.02773723,.0008001,98.0772,321.9114,238.0924,121.9521,0,U,43677,999,41059,.61802E-4,.76E-5,0
DIWATA-2B,2018-084H,2026-05-11T03:44:20.971392,15.00266531,.0012111,98.1100,325.7784,299.1757,60.8253,0,U,43678,999,41066,.15692E-3,.1902E-4,0
STARS-AO,2018-084J,2026-05-11T03:09:02.686176,15.16636781,.0000908,98.0548,342.8236,327.4032,32.7143,0,U,43679,999,41185,.21177E-3,.4066E-4,0
METOP-C,2018-087A,2026-05-11T04:26:16.224864,14.21501740,.0000238,98.6664,191.4603,94.3687,265.7518,0,U,43689,999,38957,.46849E-4,.59E-6,0
ES'HAIL 2,2018-090A,2026-05-11T02:46:31.573344,1.00273235,.0001627,0.0033,75.2010,8.7258,212.4418,0,U,43700,999,2730,0,.155E-5,0
MOHAMMED VI-B,2018-095A,2026-05-11T04:33:27.735840,14.77068689,.0001341,97.9559,204.0218,77.0564,283.0795,0,U,43717,999,40272,.46595E-4,.278E-5,0
HYSIS,2018-096A,2026-05-11T04:41:58.937856,14.78615054,.000076,97.9850,198.2299,93.8596,266.2702,0,U,43719,999,40195,.41071E-4,.249E-5,0
COSMOS 2530 (RODNIK-S 16),2018-097A,2026-05-11T04:29:09.369600,12.42881072,.0020735,82.5140,245.2410,116.4302,243.8909,0,U,43751,999,33769,.12523E-2,.184E-5,0
COSMOS 2531 (RODNIK-S 17),2018-097B,2026-05-11T05:02:33.224064,12.42912855,.0017785,82.5185,246.2727,134.1615,226.0930,0,U,43752,999,33771,.14897E-2,.216E-5,0
COSMOS 2532 (RODNIK-S 18),2018-097C,2026-05-11T05:43:08.004576,12.42909093,.0019138,82.5130,245.0578,136.2778,223.9822,0,U,43753,999,33768,.68427E-3,.105E-5,0
MINXSS-2,2018-099A,2026-05-11T04:31:53.978880,15.44489493,.0007687,97.4545,206.4613,49.9798,310.2123,0,U,43758,999,40841,.48164E-3,.22285E-3,0
SIRION PATHFINDER-2,2018-099B,2026-05-11T02:42:45.803232,15.14204526,.001036,97.4283,181.0560,73.2077,287.0291,0,U,43759,999,40701,.15222E-3,.2717E-4,0
AISTECHSAT 2,2018-099L,2026-05-11T02:35:06.482688,15.15064945,.0006299,97.4325,179.9584,76.3249,283.8684,0,U,43768,999,40666,.1666E-3,.3052E-4,0
FOX-1CLIFF (AO-95),2018-099N,2026-05-11T02:25:52.447872,15.25898855,.0010413,97.4408,191.5040,116.7346,243.4959,0,U,43770,999,40756,.29846E-3,.759E-4,0
